     2.11           N: GPS NAV DATA                         RINEX VERSION / TYPE
teqc  2019Feb25                         20221121 12:23:11UTCPGM / RUN BY / DATE
OSX ker:10.11.6|Core i5|gcc 4.3 -m64|OSX ker:10.10+|=+      COMMENT
    7.4506D-09  2.2352D-08 -5.9605D-08 -1.1921D-07          ION ALPHA
    8.6016D+04  8.1920D+04 -1.3107D+05 -5.2429D+05          ION BETA
    9.313225746155D-10 2.664535259100D-15   503808     1531 DELTA-UTC: A0,A1,T,W
                                                            END OF HEADER
31 09  5 14  0  0  0.0-6.015971302986D-05-9.094947017729D-13 0.000000000000D+00
    8.700000000000D+01-7.825000000000D+01 4.411969490524D-09-2.106400098785D+00
   -3.894791007042D-06 7.072672247887D-03 4.462897777557D-06 5.153711589813D+03
    3.456000000000D+05-9.313225746155D-09 2.993618712235D+00 2.030283212662D-07
    9.728869425662D-01 3.008125000000D+02-1.143925956948D+00-7.989975671701D-09
   -9.428964182777D-11 1.000000000000D+00 1.531000000000D+03 0.000000000000D+00
    2.800000000000D+00 0.000000000000D+00-1.303851604462D-08 8.700000000000D+01
    3.384180000000D+05 4.000000000000D+00
30 09  5 14  0  0  0.0 1.460649073124D-04 2.728484105319D-12 0.000000000000D+00
    7.900000000000D+01-7.325000000000D+01 4.562690054355D-09 1.783141741617D+00
   -4.045665264130D-06 1.134809036739D-02 9.313225746155D-06 5.153604764938D+03
    3.456000000000D+05-1.676380634308D-08-2.283408521130D+00-2.775341272354D-07
    9.518828387696D-01 1.940000000000D+02 1.416043967687D+00-7.884614140113D-09
    1.853648640478D-10 1.000000000000D+00 1.531000000000D+03 0.000000000000D+00
    2.800000000000D+00 0.000000000000D+00-8.381903171539D-09 7.900000000000D+01
    3.384180000000D+05 4.000000000000D+00
20 09  5 14  0  0  0.0 8.271913975477D-05-1.023181539495D-12 0.000000000000D+00
    6.300000000000D+01 7.234375000000D+01 4.594834250433D-09 2.231255362868D+00
    3.807246685028D-06 3.993493271992D-03 8.499249815941D-06 5.153616205215D+03
    3.456000000000D+05 9.126961231232D-08 8.765867363504D-01-2.607703208923D-08
    9.423521322917D-01 2.057500000000D+02 1.356099670537D+00-8.001047561461D-09
    8.571785620706D-12 1.000000000000D+00 1.531000000000D+03 0.000000000000D+00
    2.000000000000D+00 0.000000000000D+00-6.519258022308D-09 6.300000000000D+01
    3.384180000000D+05 4.000000000000D+00
29 09  5 14  0  0  0.0 1.976499333978D-05 3.751665644813D-12 0.000000000000D+00
    1.380000000000D+02-2.250000000000D+00 4.641264755878D-09-2.895357622330D+00
   -1.452863216400D-07 3.428092226386D-03 6.813555955887D-06 5.153679449081D+03
    3.456000000000D+05 3.166496753693D-08-1.168200362908D+00 2.980232238770D-08
    9.595651233847D-01 2.466562500000D+02-1.328676982947D+00-7.884256982379D-09
    1.242908915002D-10 1.000000000000D+00 1.531000000000D+03 0.000000000000D+00
    2.800000000000D+00 0.000000000000D+00-8.847564458847D-09 1.380000000000D+02
    3.384180000000D+05 4.000000000000D+00
23 09  5 14  0  0  0.0 3.899922594428D-04 2.273736754432D-13 0.000000000000D+00
    5.400000000000D+01 4.471875000000D+01 4.410898017322D-09-3.612137667347D-01
    2.339482307434D-06 6.057642865926D-03 3.127381205559D-06 5.153613876343D+03
    3.456000000000D+05 4.842877388000D-08 1.953798507207D+00-2.980232238770D-08
    9.702317140682D-01 3.206562500000D+02 2.877681149531D+00-8.235700192828D-09
    2.235807416067D-10 1.000000000000D+00 1.531000000000D+03 0.000000000000D+00
    2.000000000000D+00 0.000000000000D+00-2.002343535423D-08 5.400000000000D+01
    3.384180000000D+05 4.000000000000D+00
16 09  5 14  0  0  0.0 5.128979682922D-05-3.296918293927D-12 0.000000000000D+00
    9.100000000000D+01-5.706250000000D+01 4.348752571572D-09 1.905935698535D+00
   -2.603977918625D-06 5.337677313946D-03 8.691102266312D-06 5.153545806885D+03
    3.456000000000D+05 1.192092895508D-07-2.218936624188D+00 6.705522537231D-08
    9.682541150761D-01 2.146250000000D+02-3.692684532390D-01-7.807825227261D-09
    9.678974596714D-11 1.000000000000D+00 1.531000000000D+03 0.000000000000D+00
    2.000000000000D+00 0.000000000000D+00-9.778887033463D-09 9.100000000000D+01
    3.384180000000D+05 4.000000000000D+00
 2 09  5 14  0  0  0.0 1.541730016470D-04 5.684341886081D-13 0.000000000000D+00
    5.700000000000D+01 6.250000000000D-01 5.026280793341D-09-2.237118625885D-01
   -8.568167686462D-08 9.052714100108D-03 7.519498467445D-06 5.153647642136D+03
    3.456000000000D+05 2.048909664154D-07-1.592116420897D-01-1.285225152969D-07
    9.416880947576D-01 2.274375000000D+02 2.809730288567D+00-8.249272186727D-09
   -4.103742365913D-10 1.000000000000D+00 1.531000000000D+03 0.000000000000D+00
    2.000000000000D+00 0.000000000000D+00-1.722946763039D-08 5.700000000000D+01
    3.384180000000D+05 4.000000000000D+00
13 09  5 14  0  0  0.0 2.970108762383D-04 9.094947017729D-13 0.000000000000D+00
    6.400000000000D+01 4.131250000000D+01 3.884090359382D-09 4.134440061510D-01
    1.979991793633D-06 4.123903578147D-03 3.395602107048D-06 5.153711902618D+03
    3.456000000000D+05-1.862645149231D-08 2.005516852570D+00 4.842877388000D-08
    9.947278033200D-01 3.293125000000D+02 1.559264806278D+00-7.993904406777D-09
    1.692927660089D-10 1.000000000000D+00 1.531000000000D+03 0.000000000000D+00
    2.000000000000D+00 0.000000000000D+00-1.117587089539D-08 6.400000000000D+01
    3.384960000000D+05 4.000000000000D+00
24 09  5 14  0  0  0.0 1.886738464236D-04 2.955857780762D-12 0.000000000000D+00
    4.500000000000D+01 6.843750000000D+00 4.570547524507D-09 2.009418836909D+00
    3.948807716370D-07 6.727488362230D-03 7.957220077515D-06 5.153673339844D+03
    3.456000000000D+05-3.539025783539D-08-9.570773902292D-02 1.229345798492D-07
    9.511014517988D-01 2.214375000000D+02-6.468201308604D-01-7.799253441640D-09
   -4.296607542379D-10 1.000000000000D+00 1.531000000000D+03 0.000000000000D+00
    2.000000000000D+00 0.000000000000D+00-1.396983861923D-09 4.500000000000D+01
    3.401460000000D+05 4.000000000000D+00
25 09  5 14  0  0  0.0 4.107896238565D-04 1.978150976356D-11 0.000000000000D+00
    5.000000000000D+01-6.915625000000D+01 4.415183910132D-09 2.506102283437D+00
   -3.606081008911D-06 1.145734114107D-02 3.935769200325D-06 5.153655973434D+03
    3.456000000000D+05 2.477318048477D-07 2.901322188035D+00-3.352761268616D-08
    9.697384093143D-01 3.069375000000D+02-1.208031919561D+00-7.966046103509D-09
   -1.578637185147D-10 1.000000000000D+00 1.531000000000D+03 0.000000000000D+00
    2.000000000000D+00 0.000000000000D+00-7.450580596924D-09 5.000000000000D+01
    3.416160000000D+05 4.000000000000D+00
 6 09  5 14  0  0  0.0 1.215403899550D-04 1.546140993014D-11 0.000000000000D+00
    1.300000000000D+02-4.687500000000D+00 5.289863201178D-09 1.898613432207D+00
   -3.818422555923D-07 5.976274725981D-03 6.368383765221D-06 5.153700551987D+03
    3.456000000000D+05 1.043081283569D-07-1.239306090096D+00-7.636845111847D-08
    9.333799357523D-01 2.352812500000D+02-1.376053716606D+00-8.240700401106D-09
    6.643133856047D-11 1.000000000000D+00 1.531000000000D+03 0.000000000000D+00
    2.000000000000D+00 0.000000000000D+00-4.656612873077D-09 1.300000000000D+02
    3.429060000000D+05 4.000000000000D+00
21 09  5 14  0  0  0.0 1.414166763425D-05-2.046363078989D-12 0.000000000000D+00
    6.800000000000D+01 3.312500000000D+00 4.968064082668D-09-2.909551675695D+00
    4.842877388000D-08 1.520225557033D-02 7.970258593559D-06 5.153614740372D+03
    3.456000000000D+05-5.774199962616D-08-1.275898251655D-01-1.806765794754D-07
    9.344492630369D-01 2.122812500000D+02-2.608057201994D+00-7.936402011571D-09
   -3.007268121931D-10 1.000000000000D+00 1.531000000000D+03 0.000000000000D+00
    2.000000000000D+00 0.000000000000D+00-1.210719347000D-08 6.800000000000D+01
    3.431160000000D+05 4.000000000000D+00
10 09  5 14  0  0  0.0-1.596054062247D-05-5.684341886081D-13 0.000000000000D+00
    6.400000000000D+01 8.271875000000D+01 4.277321024732D-09 6.915161622296D-01
    4.351139068604D-06 8.608066476882D-03 8.501112461090D-06 5.153603012085D+03
    3.456000000000D+05-8.940696716309D-08 9.247722574365D-01 1.173466444016D-07
    9.586315475832D-01 2.155312500000D+02 6.236296696618D-01-7.939259273445D-09
   -8.857511808063D-11 1.000000000000D+00 1.531000000000D+03 0.000000000000D+00
    2.800000000000D+00 0.000000000000D+00-2.793967723846D-09 6.400000000000D+01
    3.437760000000D+05 4.000000000000D+00
 7 09  5 14  0  0  0.0 1.890165731311D-05-6.821210263297D-13 0.000000000000D+00
    7.700000000000D+01-7.596875000000D+01 4.499473135402D-09-1.940825949477D+00
   -3.989785909653D-06 2.534541534260D-03 4.818663001060D-06 5.153673551559D+03
    3.456000000000D+05-3.352761268616D-08 2.995802671915D+00-1.117587089539D-07
    9.675073875605D-01 2.926250000000D+02 2.880547424442D+00-8.117838140543D-09
   -8.321775206769D-11 1.000000000000D+00 1.531000000000D+03 0.000000000000D+00
    2.000000000000D+00 0.000000000000D+00-1.071020960808D-08 7.700000000000D+01
    3.445260000000D+05 4.000000000000D+00
 3 09  5 14  0  0  0.0 3.926558420062D-04 5.229594535194D-12 0.000000000000D+00
    8.700000000000D+01 1.156250000000D+00 5.554159924483D-09-5.730656719940D-01
    9.685754776001D-08 1.184990804177D-02 6.636604666710D-06 5.153748254776D+03
    3.456000000000D+05-3.725290298462D-09-1.306811809957D+00 1.881271600723D-07
    9.258814931263D-01 2.306250000000D+02 9.000822569303D-01-8.614644548810D-09
    1.007184810433D-10 1.000000000000D+00 1.531000000000D+03 0.000000000000D+00
    2.800000000000D+00 0.000000000000D+00-4.190951585770D-09 8.700000000000D+01
    3.446160000000D+05 4.000000000000D+00
